# From MPC191606
147P/Kushida-Muramatsu,e,2.3112,91.6674,348.6716,4.009985,0.1227411,0.21142336,112.8021,06/13.0/2026,2000,g 14.0,4.0
# From MPC191606
148P/Anderson-LINEAR,e,3.6583,89.1932,8.1078,3.620332,0.1430808,0.55031356,208.7932,06/13.0/2026,2000,g 16.0,2.0
# From MPC191606
149P/Mueller,e,34.2703,143.6943,30.0133,4.135135,0.1172113,0.32443301,338.2662,06/13.0/2026,2000,g  8.0,8.0
# From MPC191606
150P/LONEOS,e,18.5458,272.0505,246.1368,3.872475,0.1293365,0.54942837,106.3472,06/13.0/2026,2000,g 13.5,4.0
# From MPC191606
151P/Helin,e,4.7217,143.0487,216.1779,5.769417,0.0711224,0.57204381,277.3237,06/13.0/2026,2000,g 10.0,6.0
# From MPC191606
152P/Helin-Lawrence,e,9.8795,91.7767,164.3557,4.486304,0.1037220,0.30639728,167.3635,06/13.0/2026,2000,g 11.5,4.0
# From MPC191606
154P/Brewington,e,17.6411,342.9952,47.8951,4.791685,0.0939662,0.67607432,68.5943,06/13.0/2026,2000,g  2.5,12.0
# From MPC191607
156P/Russell-LINEAR,e,17.2549,35.3180,0.5333,3.462687,0.1529622,0.61464233,310.8019,06/13.0/2026,2000,g 15.5,2.0
# From MPC191607
157P/Tritton,e,12.4248,287.4962,155.2030,3.548579,0.1474424,0.55657386,202.2422,06/13.0/2026,2000,g 10.0,4.0
# From MPEC 2022-VC5
157P-B/Tritton,e,12.4278,153.8602,287.2485,3.102753,0.1803363,0.49974777,247.6501,06/13.0/2026,2000,g 15.7,4.0
# From MPC191607
158P/Kowal-LINEAR,e,7.5062,124.1348,235.6636,5.751983,0.0714460,0.11284658,94.3059,06/13.0/2026,2000,g  9.0,4.0
# From MPC191607
159P/LONEOS,e,23.4715,54.9330,4.7655,5.857122,0.0695309,0.38203071,204.4230,06/13.0/2026,2000,g 10.0,4.0
# From MPC191607
160P/LINEAR,e,15.5888,333.3103,12.7729,3.781198,0.1340479,0.52486269,320.0244,06/13.0/2026,2000,g 15.5,2.0
# From MPC191607
161P/Hartley-IRAS,e,95.7908,1.4754,47.0695,7.722221,0.0459294,0.83616765,352.3063,06/13.0/2026,2000,g  8.5,6.0
# From MPC191607
162P/SidingSpring,e,27.5525,30.8672,357.2527,3.090956,0.1813697,0.58280995,4.7434,06/13.0/2026,2000,g 12.0,4.0
# From MPC191607
163P/NEAT,e,12.7244,102.0662,349.6945,3.759185,0.1352270,0.45342580,337.8180,06/13.0/2026,2000,g 14.5,4.0
# From MPEC 2026-L50
164P/Christensen,e,16.2754,88.2597,325.8888,3.650175,0.1413297,0.54135393,53.9455,06/13.0/2026,2000,g 11.0,4.0
# From MPC191608
165P/LINEAR,e,15.9168,0.5811,126.0206,17.81953,0.0131027,0.61956746,124.2832,06/13.0/2026,2000,g 11.5,2.0
# From MPC191608
166P/NEAT,e,15.3813,64.3540,321.9858,13.85691,0.0191075,0.38141786,167.8356,06/13.0/2026,2000,g  5.5,4.0
# From MPC191608
167P/CINEOS,e,19.0725,295.8441,344.1843,16.23683,0.0150644,0.26816669,138.9141,06/13.0/2026,2000,g  9.5,2.0
# From MPC191608
168P/Hergenrother,e,21.5951,355.3777,15.0912,3.585622,0.1451634,0.62102474,2.5706,06/13.0/2026,2000,g 15.5,4.0
# From MPEC 2026-L50
169P/NEAT,e,11.2848,176.0343,218.1363,2.603700,0.2345944,0.76790021,336.4495,06/13.0/2026,2000,g 16.0,2.0
# From MPC191608
170P/Christensen,e,10.1381,142.6393,224.4563,4.188269,0.1149879,0.30579352,132.8414,06/13.0/2026,2000,g 12.0,4.0
# From MPC194201
171P/Spahr,e,21.9546,101.6920,347.0381,3.551764,0.1472441,0.50273258,38.4380,06/13.0/2026,2000,g 13.5,4.0
# From MPC191608
172P/Yeung,e,11.2209,30.8740,208.8682,4.225629,0.1134663,0.20529674,25.2652,06/13.0/2026,2000,g 13.0,4.0
# From MPC191608
173P/Mueller,e,16.4929,100.3459,29.4049,5.718282,0.0720785,0.26242953,117.9926,06/13.0/2026,2000,g  7.5,4.0
# From MPEC 2026-HH0
175P/Hergenrother,e,4.9295,109.7947,74.6014,3.687967,0.1391629,0.37441910,348.5579,06/13.0/2026,2000,g 14.0,4.0
# From MPC191609
178P/Hug-Bell,e,11.0924,102.7838,297.9637,3.632540,0.1423602,0.48204608,306.8177,06/13.0/2026,2000,g 13.5,4.0
# From MPC194201
179P/Jedicke,e,19.8890,115.5042,297.2605,5.938308,0.0681099,0.30489915,100.3757,06/13.0/2026,2000,g  2.5,8.0
# From MPC191609
180P/NEAT,e,16.8598,84.5454,94.6052,3.867077,0.1296074,0.35418851,138.2213,06/13.0/2026,2000,g 11.0,4.0
# From MPC191609
181P/Shoemaker-Levy,e,17.4661,35.4317,336.2931,3.880210,0.1289500,0.69935733,208.5855,06/13.0/2026,2000,g 11.5,4.0
# From MPC191609
182P/LONEOS,e,16.2295,72.4313,54.2552,2.947863,0.1947346,0.66409953,290.4077,06/13.0/2026,2000,g 18.0,4.0
# From MPC194201
183P/Korlevic-Juric,e,18.7307,3.1549,161.2100,4.725880,0.0959357,0.10397418,317.3362,06/13.0/2026,2000,g 12.5,2.0
# From MPC191609
184P/Lovas,e,4.5681,173.2186,186.5728,3.802334,0.1329317,0.54942952,273.5916,06/13.0/2026,2000,g 13.5,4.0
# From MPC191609
185P/Petriew,e,14.0013,214.1241,181.9237,3.100421,0.1805399,0.69904247,192.5477,06/13.0/2026,2000,g 15.0,4.0
# From MPC191609
186P/Garradd,e,28.7911,325.6061,266.7215,4.877187,0.0915061,0.12192494,254.3760,06/13.0/2026,2000,g  7.5,4.0
# From MPC191610
187P/LINEAR,e,13.6689,109.8467,132.3120,4.542365,0.1018078,0.15676471,298.4298,06/13.0/2026,2000,g  9.0,4.0
# From MPC194201
188P/LINEAR-Mueller,e,10.5262,358.9112,26.8570,4.362406,0.1081720,0.41636135,6.5602,06/13.0/2026,2000,g 11.5,4.0
# From MPC194201
190P/Mueller,e,2.1794,335.3968,50.3797,4.224680,0.1135046,0.52352327,60.8333,06/13.0/2026,2000,g 13.0,4.0
# From MPC191610
191P/McNaught,e,8.8392,98.1795,284.2386,3.641971,0.1418076,0.38472998,271.0904,06/13.0/2026,2000,g 13.0,4.0
# From MPC191610
192P/Shoemaker-Levy,e,24.5761,51.4836,313.0188,6.437296,0.0603461,0.77316334,45.2433,06/13.0/2026,2000,g 15.0,4.0
# From MPC191610
193P/LINEAR-NEAT,e,10.6769,335.1792,8.0705,3.580791,0.1454573,0.39238569,255.3647,06/13.0/2026,2000,g 14.0,4.0
# From MPC191610
194P/LINEAR,e,11.8033,349.4830,128.6872,4.124656,0.1176583,0.56336484,101.1350,06/13.0/2026,2000,g 16.0,4.0
# From MPEC 2026-L50
195P/Hill,e,36.4152,243.0849,250.6981,6.438653,0.0603270,0.31026246,18.7434,06/13.0/2026,2000,g  8.5,4.0
# From MPC191610
196P/Tichy,e,19.2863,24.1245,12.1491,3.807628,0.1326546,0.42702978,175.5603,06/13.0/2026,2000,g 13.5,4.0
# From MPC191611
197P/LINEAR,e,25.1309,66.0394,190.0183,2.913129,0.1982278,0.61653862,255.4563,06/13.0/2026,2000,g 16.5,2.0
# From MPC191611
198P/ODAS,e,1.3395,358.3122,69.2883,3.633248,0.1423185,0.44825119,29.0145,06/13.0/2026,2000,g 12.5,4.0
# From MPC191611
199P/Shoemaker,e,24.9414,92.3385,191.7086,5.868702,0.0693252,0.50409821,72.1772,06/13.0/2026,2000,g 10.0,4.0
# From MPC191611
200P/Larsen,e,12.0941,234.7363,134.4128,4.956085,0.0893297,0.33049777,224.5635,06/13.0/2026,2000,g  9.0,4.0
# From MPC191611
201P/LONEOS,e,5.7331,19.6633,41.6703,3.354321,0.1604343,0.63733038,295.4482,06/13.0/2026,2000,g 14.0,4.0
# From MPC191611
202P/Scotti,e,2.1415,177.2979,274.5644,4.099990,0.1187216,0.25084707,89.8215,06/13.0/2026,2000,g 13.5,4.0
# From MPC191611
203P/Korlevic,e,2.9761,290.2202,154.9912,4.668471,0.0977107,0.31623343,223.5091,06/13.0/2026,2000,g 14.5,2.0
# From MPC191611
204P/LINEAR-NEAT,e,6.5982,108.4721,356.7602,3.584526,0.1452300,0.48824422,189.2842,06/13.0/2026,2000,g 14.0,4.0
# From MPC191611
205P/Giacobini,e,15.3009,179.6238,154.1217,3.543528,0.1477578,0.56724911,238.3839,06/13.0/2026,2000,g 13.0,4.0
# From MPC191612
207P/NEAT,e,10.1959,198.0934,273.0934,3.887526,0.1285862,0.75849660,110.9718,06/13.0/2026,2000,g 16.0,4.0
# From MPC191612
208P/McMillan,e,4.3955,35.9786,311.8140,4.062611,0.1203639,0.37481419,78.8981,06/13.0/2026,2000,g 12.5,4.0
# From MPC191612
209P/LINEAR,e,21.2894,62.7439,152.4759,2.956914,0.1938412,0.67427468,135.3839,06/13.0/2026,2000,g 17.0,2.0
# From MPEC 2026-L50
210P/Christensen,e,10.2871,93.7974,345.9494,3.160091,0.1754505,0.83403139,35.4899,06/13.0/2026,2000,g 13.5,4.0
# From MPC191612
211P/Hill,e,18.9262,117.1000,4.3916,3.548679,0.1474362,0.34460117,198.4755,06/13.0/2026,2000,g 12.5,4.0
# From MPC191612
212P/NEAT,e,22.1478,97.9726,14.1002,3.904879,0.1277299,0.58670566,99.4735,06/13.0/2026,2000,g 17.0,2.0
# From MPC191612
213P/VanNess,e,10.7946,310.2020,8.3944,3.362645,0.1598389,0.41856631,147.8622,06/13.0/2026,2000,g 10.5,4.0
# From MPEC 2025-GB9
213P-B/Van Ness,e,10.7932,310.2005,8.4047,3.362330,0.1598614,0.41848091,147.9030,06/13.0/2026,2000,g 17.0,4.0
# From MPC191612
214P/LINEAR,e,15.1961,348.2257,190.1185,3.615342,0.1433772,0.48672984,194.2478,06/13.0/2026,2000,g 13.0,4.0
# From MPEC 2026-HI3
215P/NEAT,e,10.5752,56.6846,262.0745,4.337754,0.1090955,0.16484620,262.4448,06/13.0/2026,2000,g 11.0,4.0
# From MPC191612
216P/LINEAR,e,9.0629,359.7567,151.8161,3.860984,0.1299144,0.44919024,115.3311,06/13.0/2026,2000,g 13.0,4.0
# From MPEC 2026-HI3
217P/LINEAR,e,12.8726,125.3710,246.9721,3.945788,0.1257487,0.68976682,48.2754,06/13.0/2026,2000,g 12.0,4.0
# From MPEC 2026-J34
218P/LINEAR,e,2.7265,174.7220,61.4000,3.059398,0.1841833,0.63087430,18.5473,06/13.0/2026,2000,g 16.0,4.0
# From MPC191613
219P/LINEAR,e,11.3852,229.6209,109.3530,3.659526,0.1407884,0.35983642,118.9385,06/13.0/2026,2000,g 11.0,4.0
# From MPEC 2026-L50
220P/McNaught,e,8.1208,150.0837,180.5635,3.120774,0.1787766,0.50034643,359.7997,06/13.0/2026,2000,g 15.0,4.0
# From MPC191613
221P/LINEAR,e,10.2761,220.9624,47.5941,3.381019,0.1585378,0.52182176,255.2578,06/13.0/2026,2000,g 14.5,4.0
# From MPC191613
223P/Skiff,e,27.0075,346.6851,37.9866,4.158275,0.1162343,0.41601807,312.7051,06/13.0/2026,2000,g 12.0,4.0
# From MPC191613
224P/LINEAR-NEAT,e,13.2959,40.0335,16.8400,3.448231,0.1539251,0.40514879,208.1259,06/13.0/2026,2000,g 15.5,4.0
# From MPC191613
226P/Pigott-LINEAR-Kowalski,e,44.0387,54.0240,341.0386,3.765751,0.1348735,0.52852768,121.2797,06/13.0/2026,2000,g 12.5,4.0
# From MPC191614
227P/Catalina-LINEAR,e,7.5062,36.7756,105.6381,3.438191,0.1545999,0.52783724,127.7717,06/13.0/2026,2000,g 16.5,2.0
# From MPC191614
228P/LINEAR,e,7.9183,30.9489,114.9545,4.159830,0.1161691,0.17783737,265.2676,06/13.0/2026,2000,g 14.5,2.0
# From MPC191614
229P/Gibbs,e,26.1248,157.7987,224.4108,3.930184,0.1264983,0.37901163,58.6492,06/13.0/2026,2000,g 13.0,4.0
# From MPC191614
230P/LINEAR,e,15.4726,106.9246,313.5921,3.455630,0.1534310,0.54512008,237.2535,06/13.0/2026,2000,g 13.0,4.0
# From MPC191614
231P/LINEAR-NEAT,e,12.2796,132.7312,43.1530,4.072326,0.1199334,0.24007110,310.2360,06/13.0/2026,2000,g 14.5,2.0
# From MPC191614
232P/Hill,e,14.6438,55.9825,53.4052,4.468002,0.1043600,0.33623043,273.2899,06/13.0/2026,2000,g 11.5,4.0
# From MPEC 2026-L50
